0 COSMOS 2251 DEB
1 38054U 93036BRL 13280.76978840  .00001343  00000-0  14198-2 0  2465
2 38054 073.9608 202.5753 0410349 319.6949 065.9334 13.44191178128944
0 COSMOS 2251 DEB
1 38054U 93036BRL 13282.21072772  .00001864  00000-0  19613-2 0  2472
2 38054 073.9607 200.2897 0410203 317.1595 198.7457 13.44198573129146
0 COSMOS 2251 DEB
1 38054U 93036BRL 13285.18756793  .00001273  00000-0  13487-2 0  2481
2 38054 073.9612 195.5674 0409842 311.9271 203.9927 13.44206825129546
0 COSMOS 2251 DEB
1 38054U 93036BRL 13290.17333692  .00001559  00000-0  16480-2 0  2499
2 38054 073.9615 187.6588 0409185 303.1357 210.8878 13.44220434130213
0 COSMOS 2251 DEB
1 38054U 93036BRL 13292.39910972  .00001297  00000-0  13773-2 0  2500
2 38054 073.9609 184.1280 0408770 299.2232 181.8068 13.44225102130500
0 COSMOS 2251 DEB
1 38054U 93036BRL 13294.68693302  .00001349  00000-0  14323-2 0  2510
2 38054 073.9603 180.4986 0408394 295.1867 093.0543 13.44230701130814
